GLOBALSTAR M045         
1 25676U 99019A   26005.18734065 -.00000069  00000+0  21985-3 0  9994
2 25676  51.9974  89.5203 0000612 146.2880 232.0849 12.27070780218191
GLOBALSTAR M019         
1 25677U 99019B   26005.02519778 -.00000046  00000+0  45323-3 0  9997
2 25677  51.9864 234.5562 0002089  38.5633 109.3990 12.13882037209654
GLOBALSTAR M044         
1 25678U 99019C   26004.99917646 -.00000058  00000+0  35413-3 0  9991
2 25678  51.9941 211.2335 0007195  69.7659  77.8760 11.90263813195352
GLOBALSTAR M042         
1 25679U 99019D   26004.84617770 -.00000058  00000+0  31813-3 0  9991
2 25679  51.9989 201.6604 0003231  18.0643  84.5670 12.22095881209911
GLOBALSTAR M025         
1 25770U 99031A   26004.37505411 -.00000042  00000+0  77337-3 0  9997
2 25770  51.9829  53.2030 0002520 123.1285 322.1914 11.22559805504303
GLOBALSTAR M049         
1 25771U 99031B   26004.68325828  .00000001  00000+0  22852-2 0  9999
2 25771  51.9879  97.3774 0002472  12.9980 347.0880 11.12124386139848
GLOBALSTAR M047         
1 25772U 99031C   26005.19681148 -.00000055  00000+0  39601-3 0  9998
2 25772  51.9847  73.8835 0016195 247.6900 112.2189 11.31931901493989
GLOBALSTAR M052         
1 25773U 99031D   26004.84686478 -.00000051  00000+0  48935-3 0  9997
2 25773  51.9828 202.8472 0003407 125.7033 332.7988 11.15063266501006
